STARLINK-2150
1 27739C 21017T   21325.14479171  .00004895  00000-0  32809-3 0  3252
2 27739  53.0549  72.5832 0001387  87.4031 319.5747 15.06381324    17
